0 SCOUT X-4 DEB
1 00726U 63053G   13282.10835918  .00048613  00000-0  46157-2 0  4591
2 00726 078.4905 256.1213 0151455 278.0898 080.3144 14.84960247433491
0 SCOUT X-4 DEB
1 00726U 63053G   13282.64737807  .00036258  00000-0  34448-2 0  4602
2 00726 078.4902 255.3443 0151341 276.5576 081.8416 14.85002250433573
0 SCOUT X-4 DEB
1 00726U 63053G   13283.65800821  .00062131  00000-0  59187-2 0  4629
2 00726 078.4901 253.8884 0150964 273.7278 084.7144 14.85077353433725
0 SCOUT X-4 DEB
1 00726U 63053G   13284.33172129  .00039328  00000-0  37271-2 0  4619
2 00726 078.4899 252.9176 0151110 271.6367 086.7531 14.85107728433828
0 SCOUT X-4 DEB
1 00726U 63053G   13285.34227185  .00031286  00000-0  29651-2 0  4623
2 00726 078.4896 251.4617 0150813 268.7026 089.6895 14.85172645433978
0 SCOUT X-4 DEB
1 00726U 63053G   13287.49797735  .00033382  00000-0  31557-2 0  4632
2 00726 078.4897 248.3551 0150475 262.4036 096.0053 14.85294505434291
0 SCOUT X-4 DEB
1 00726U 63053G   13288.17159442  .00053262  00000-0  50177-2 0  4644
2 00726 078.4899 247.3842 0150237 260.4120 098.0080 14.85361451434391
0 SCOUT X-4 DEB
1 00726U 63053G   13289.11461163  .00043534  00000-0  40996-2 0  4655
2 00726 078.4902 246.0244 0150071 257.6413 100.7957 14.85436795434531
0 SCOUT X-4 DEB
1 00726U 63053G   13289.78817076  .00044567  00000-0  41931-2 0  4664
2 00726 078.4904 245.0531 0149968 255.6651 102.7862 14.85476071434635
0 SCOUT X-4 DEB
1 00726U 63053G   13290.93317411  .00036325  00000-0  34151-2 0  4671
2 00726 078.4908 243.4021 0149728 252.3155 106.1653 14.85565754434804
0 SCOUT X-4 DEB
1 00726U 63053G   13293.08830755  .00033825  00000-0  31735-2 0  4689
2 00726 078.4913 240.2947 0149241 246.0291 112.5225 14.85704483435129
0 SCOUT X-4 DEB
1 00726U 63053G   13295.31058367  .00042602  00000-0  39819-2 0  4693
2 00726 078.4910 237.0898 0148929 239.5118 119.1308 14.85840475435455
